start=new Date('2023-05-11T00:00:00.000Z').valueOf();
sats=[{"ARG_OF_PERICENTER":"94.5269","OBJECT_NAME":"STARLINK-4617","SEMIMAJOR_AXIS":"6941.144","ECCENTRICITY":"0.00012630","PERIAPSIS":"562.132","EPHEMERIS_TYPE":"0","LAUNCH_DATE":"2022-08-31","EPOCH":"2023-05-10T15:06:46.898208","ELEMENT_SET_NO":"999","MEAN_ANOMALY":"265.6099","DECAY_DATE":null,"MEAN_ELEMENT_THEORY":"SGP4","SITE":"AFWTR","INCLINATION":"97.6571","BSTAR":"0.00002492000000","MEAN_MOTION":"15.01260926","PERIOD":"95.919","REV_AT_EPOCH":"3809","TLE_LINE2":"2 53675  97.6571  12.2268 0001263  94.5269 265.6099 15.01260926 38090","GP_ID":"231568416","MEAN_MOTION_DDOT":"0.0000000000000","OBJECT_ID":"2022-105AD","REF_FRAME":"TEME","RCS_SIZE":"LARGE","RA_OF_ASC_NODE":"12.2268","CLASSIFICATION_TYPE":"U","NORAD_CAT_ID":"53675","MEAN_MOTION_DOT":"0.00000261","TIME_SYSTEM":"UTC","TLE_LINE1":"1 53675U 22105AD  23130.62970947  .00000261  00000-0  24920-4 0  9999","APOAPSIS":"563.886","COUNTRY_CODE":"US","OBJECT_TYPE":"PAYLOAD","CENTER_NAME":"EARTH","FILE":"3904830"},{"OBJECT_TYPE":"PAYLOAD","CENTER_NAME":"EARTH","COUNTRY_CODE":"US","APOAPSIS":"564.218","TLE_LINE1":"1 53676U 22105AE  23130.75560547  .00001313  00000-0  10679-3 0  9999","FILE":"3904830","CLASSIFICATION_TYPE":"U","RA_OF_ASC_NODE":"12.3587","TIME_SYSTEM":"UTC","MEAN_MOTION_DOT":"0.00001313","NORAD_CAT_ID":"53676","REF_FRAME":"TEME","OBJECT_ID":"2022-105AE","MEAN_MOTION_DDOT":"0.0000000000000","GP_ID":"231568667","RCS_SIZE":"LARGE","BSTAR":"0.00010679000000","INCLINATION":"97.6601","TLE_LINE2":"2 53676  97.6601  12.3587 0001760 100.5716 259.5706 15.01265027 38114","REV_AT_EPOCH":"3811","PERIOD":"95.919","MEAN_MOTION":"15.01265027","SITE":"AFWTR","MEAN_ELEMENT_THEORY":"SGP4","DECAY_DATE":null,"MEAN_ANOMALY":"259.5706","LAUNCH_DATE":"2022-08-31","EPHEMERIS_TYPE":"0","ELEMENT_SET_NO":"999","EPOCH":"2023-05-10T18:08:04.312608","ECCENTRICITY":"0.00017600","SEMIMAJOR_AXIS":"6941.131","OBJECT_NAME":"STARLINK-4621","ARG_OF_PERICENTER":"100.5716","PERIAPSIS":"561.775"},{"FILE":"3904749","COUNTRY_CODE":"US","OBJECT_TYPE":"PAYLOAD","CENTER_NAME":"EARTH","TLE_LINE1":"1 53677U 22105AF  23130.76115712  .00001205  00000-0  98358-4 0  9992","APOAPSIS":"564.109","RCS_SIZE":"LARGE","OBJECT_ID":"2022-105AF","REF_FRAME":"TEME","GP_ID":"231542643","MEAN_MOTION_DDOT":"0.0000000000000","TIME_SYSTEM":"UTC","NORAD_CAT_ID":"53677","MEAN_MOTION_DOT":"0.00001205","RA_OF_ASC_NODE":"12.3588","CLASSIFICATION_TYPE":"U","SITE":"AFWTR","DECAY_DATE":null,"MEAN_ANOMALY":"265.2822","MEAN_ELEMENT_THEORY":"SGP4","REV_AT_EPOCH":"3839","TLE_LINE2":"2 53677  97.6589  12.3588 0001598  94.8585 265.2822 15.01263910 38391","MEAN_MOTION":"15.01263910","PERIOD":"95.919","BSTAR":"0.00009835800000","INCLINATION":"97.6589","PERIAPSIS":"561.891","SEMIMAJOR_AXIS":"6941.135","ECCENTRICITY":"0.00015980","OBJECT_NAME":"STARLINK-4579","ARG_OF_PERICENTER":"94.8585","ELEMENT_SET_NO":"999","EPOCH":"2023-05-10T18:16:03.975168","LAUNCH_DATE":"2022-08-31","EPHEMERIS_TYPE":"0"},{"FILE":"3904830","TLE_LINE1":"1 53678U 22105AG  23130.75375217  .00001251  00000-0  10194-3 0  9992","APOAPSIS":"564.568","COUNTRY_CODE":"US","OBJECT_TYPE":"PAYLOAD","CENTER_NAME":"EARTH","RCS_SIZE":"LARGE","GP_ID":"231567164","MEAN_MOTION_DDOT":"0.0000000000000","OBJECT_ID":"2022-105AG","REF_FRAME":"TEME","NORAD_CAT_ID":"53678","MEAN_MOTION_DOT":"0.00001251","TIME_SYSTEM":"UTC","RA_OF_ASC_NODE":"12.3602","CLASSIFICATION_TYPE":"U","MEAN_ANOMALY":"263.3322","DECAY_DATE":null,"MEAN_ELEMENT_THEORY":"SGP4","SITE":"AFWTR","MEAN_MOTION":"15.01269821","PERIOD":"95.919","REV_AT_EPOCH":"3811","TLE_LINE2":"2 53678  97.6591  12.3602 0002285  96.8162 263.3322 15.01269821 38110","INCLINATION":"97.6591","BSTAR":"0.00010194000000","PERIAPSIS":"561.396","ARG_OF_PERICENTER":"96.8162","OBJECT_NAME":"STARLINK-4418","SEMIMAJOR_AXIS":"6941.117","ECCENTRICITY":"0.00022850","EPOCH":"2023-05-10T18:05:24.187488","ELEMENT_SET_NO":"999","EPHEMERIS_TYPE":"0","LAUNCH_DATE":"2022-08-31"},{"EPOCH":"2023-05-10T16:34:45.766272","ELEMENT_SET_NO":"999","EPHEMERIS_TYPE":"0","LAUNCH_DATE":"2022-08-31","PERIAPSIS":"561.632","ARG_OF_PERICENTER":"104.0091","OBJECT_NAME":"STARLINK-4632","SEMIMAJOR_AXIS":"6941.147","ECCENTRICITY":"0.00019890","PERIOD":"95.919","MEAN_MOTION":"15.01259813","TLE_LINE2":"2 53679  97.6602  12.2936 0001989 104.0091 256.1354 15.01259813 38100","REV_AT_EPOCH":"3810","INCLINATION":"97.6602","BSTAR":"0.00015686000000","MEAN_ELEMENT_THEORY":"SGP4","DECAY_DATE":null,"MEAN_ANOMALY":"256.1354","SITE":"AFWTR","MEAN_MOTION_DOT":"0.00001956","NORAD_CAT_ID":"53679","TIME_SYSTEM":"UTC","CLASSIFICATION_TYPE":"U","RA_OF_ASC_NODE":"12.2936","RCS_SIZE":"LARGE","MEAN_MOTION_DDOT":"0.0000000000000","GP_ID":"231567916","REF_FRAME":"TEME","OBJECT_ID":"2022-105AH","FILE":"3904830","APOAPSIS":"564.393","TLE_LINE1":"1 53679U 22105AH  23130.69080748  .00001956  00000-0  15686-3 0  9991","OBJECT_TYPE":"PAYLOAD","CENTER_NAME":"EARTH","COUNTRY_CODE":"US"},{"MEAN_MOTION_DOT":"0.00001324","NORAD_CAT_ID":"53680","TIME_SYSTEM":"UTC","CLASSIFICATION_TYPE":"U","RA_OF_ASC_NODE":"12.2927","RCS_SIZE":"LARGE","MEAN_MOTION_DDOT":"0.0000000000000","GP_ID":"231568167","REF_FRAME":"TEME","OBJECT_ID":"2022-105AJ","FILE":"3904830","APOAPSIS":"565.054","TLE_LINE1":"1 53680U 22105AJ  23130.68340266  .00001324  00000-0  10767-3 0  9990","OBJECT_TYPE":"PAYLOAD","CENTER_NAME":"EARTH","COUNTRY_CODE":"US","EPOCH":"2023-05-10T16:24:05.989824","ELEMENT_SET_NO":"999","EPHEMERIS_TYPE":"0","LAUNCH_DATE":"2022-08-31","PERIAPSIS":"560.968","ARG_OF_PERICENTER":"93.8137","OBJECT_NAME":"STARLINK-4630","SEMIMAJOR_AXIS":"6941.146","ECCENTRICITY":"0.00029430","PERIOD":"95.919","MEAN_MOTION":"15.01260222","TLE_LINE2":"2 53680  97.6590  12.2927 0002943  93.8137 266.3424 15.01260222 38102","REV_AT_EPOCH":"3810","INCLINATION":"97.6590","BSTAR":"0.00010767000000","MEAN_ELEMENT_THEORY":"SGP4","DECAY_DATE":null,"MEAN_ANOMALY":"266.3424","SITE":"AFWTR"},{"BSTAR":"0.00008591900000","INCLINATION":"97.6612","TLE_LINE2":"2 53681  97.6612  12.3533 0001611  24.0657 336.0643 15.01267009 38115","REV_AT_EPOCH":"3811","PERIOD":"95.919","MEAN_MOTION":"15.01267009","SITE":"AFWTR","MEAN_ELEMENT_THEORY":"SGP4","MEAN_ANOMALY":"336.0643","DECAY_DATE":null,"LAUNCH_DATE":"2022-08-31","EPHEMERIS_TYPE":"0","ELEMENT_SET_NO":"999","EPOCH":"2023-05-10T18:05:44.962368","OBJECT_NAME":"STARLINK-4424","SEMIMAJOR_AXIS":"6941.125","ECCENTRICITY":"0.00016110","ARG_OF_PERICENTER":"24.0657","PERIAPSIS":"561.872","CENTER_NAME":"EARTH","OBJECT_TYPE":"PAYLOAD","COUNTRY_CODE":"US","APOAPSIS":"564.108","TLE_LINE1":"1 53681U 22105AK  23130.75399262  .00001045  00000-0  85919-4 0  9991","FILE":"3904830","CLASSIFICATION_TYPE":"U","RA_OF_ASC_NODE":"12.3533","TIME_SYSTEM":"UTC","MEAN_MOTION_DOT":"0.00001045","NORAD_CAT_ID":"53681","REF_FRAME":"TEME","OBJECT_ID":"2022-105AK","MEAN_MOTION_DDOT":"0.0000000000000","GP_ID":"231566915","RCS_SIZE":"LARGE"},{"CLASSIFICATION_TYPE":"U","RA_OF_ASC_NODE":"12.3555","TIME_SYSTEM":"UTC","MEAN_MOTION_DOT":"0.00000793","NORAD_CAT_ID":"53682","REF_FRAME":"TEME","OBJECT_ID":"2022-105AL","MEAN_MOTION_DDOT":"0.0000000000000","GP_ID":"231567665","RCS_SIZE":"LARGE","OBJECT_TYPE":"PAYLOAD","CENTER_NAME":"EARTH","COUNTRY_CODE":"US","APOAPSIS":"565.720","TLE_LINE1":"1 53682U 22105AL  23130.74659915  .00000793  00000-0  66360-4 0  9993","FILE":"3904830","LAUNCH_DATE":"2022-08-31","EPHEMERIS_TYPE":"0","ELEMENT_SET_NO":"999","EPOCH":"2023-05-10T17:55:06.166560","OBJECT_NAME":"STARLINK-4438","SEMIMAJOR_AXIS":"6941.139","ECCENTRICITY":"0.00039120","ARG_OF_PERICENTER":"86.7078","PERIAPSIS":"560.289","BSTAR":"0.00006636000000","INCLINATION":"97.6575","TLE_LINE2":"2 53682  97.6575  12.3555 0003912  86.7078 273.4594 15.01262430 38118","REV_AT_EPOCH":"3811","PERIOD":"95.919","MEAN_MOTION":"15.01262430","SITE":"AFWTR","MEAN_ELEMENT_THEORY":"SGP4","MEAN_ANOMALY":"273.4594","DECAY_DATE":null},{"CLASSIFICATION_TYPE":"U","RA_OF_ASC_NODE":"12.3591","TIME_SYSTEM":"UTC","MEAN_MOTION_DOT":"0.00001978","NORAD_CAT_ID":"53683","REF_FRAME":"TEME","OBJECT_ID":"2022-105AM","MEAN_MOTION_DDOT":"0.0000000000000","GP_ID":"231568417","RCS_SIZE":"LARGE","OBJECT_TYPE":"PAYLOAD","CENTER_NAME":"EARTH","COUNTRY_CODE":"US","APOAPSIS":"564.797","TLE_LINE1":"1 53683U 22105AM  23130.75190350  .00001978  00000-0  15851-3 0  9992","FILE":"3904830","LAUNCH_DATE":"2022-08-31","EPHEMERIS_TYPE":"0","ELEMENT_SET_NO":"999","EPOCH":"2023-05-10T18:02:44.462400","SEMIMAJOR_AXIS":"6941.121","OBJECT_NAME":"STARLINK-4625","ECCENTRICITY":"0.00026080","ARG_OF_PERICENTER":"89.5292","PERIAPSIS":"561.176","BSTAR":"0.00015851000000","INCLINATION":"97.6589","TLE_LINE2":"2 53683  97.6589  12.3591 0002608  89.5292 270.6231 15.01268246 38112","REV_AT_EPOCH":"3811","PERIOD":"95.919","MEAN_MOTION":"15.01268246","SITE":"AFWTR","MEAN_ELEMENT_THEORY":"SGP4","MEAN_ANOMALY":"270.6231","DECAY_DATE":null},{"FILE":"3904830","COUNTRY_CODE":"US","OBJECT_TYPE":"PAYLOAD","CENTER_NAME":"EARTH","TLE_LINE1":"1 53684U 22105AN  23130.92181207  .00001110  00000-0  88369-4 0  9996","APOAPSIS":"561.074","RCS_SIZE":"LARGE","OBJECT_ID":"2022-105AN","REF_FRAME":"TEME","GP_ID":"231568668","MEAN_MOTION_DDOT":"0.0000000000000","TIME_SYSTEM":"UTC","NORAD_CAT_ID":"53684","MEAN_MOTION_DOT":"0.00001110","RA_OF_ASC_NODE":"12.5406","CLASSIFICATION_TYPE":"U","SITE":"AFWTR","MEAN_ANOMALY":"262.9063","DECAY_DATE":null,"MEAN_ELEMENT_THEORY":"SGP4","REV_AT_EPOCH":"3813","TLE_LINE2":"2 53684  97.6556  12.5406 0002258  97.2418 262.9063 15.02397556 38138","MEAN_MOTION":"15.02397556","PERIOD":"95.847","BSTAR":"0.00008836900000","INCLINATION":"97.6556","PERIAPSIS":"557.941","SEMIMAJOR_AXIS":"6937.643","ECCENTRICITY":"0.00022580","OBJECT_NAME":"STARLINK-4624","ARG_OF_PERICENTER":"97.2418","ELEMENT_SET_NO":"999","EPOCH":"2023-05-10T22:07:24.562848","LAUNCH_DATE":"2022-08-31","EPHEMERIS_TYPE":"0"}];
